{
  "norad_id": 64173,
  "name": "STARLINK-34172",
  "history": [
    {
      "epoch": "2026-03-28T22:04:19.028352Z",
      "apogee_km": 475.96000492973053,
      "perigee_km": 474.49502973050585,
      "latitude_deg": 4.885573105560499e-05,
      "longitude_deg": -155.90924720609132,
      "height_km": 476.0434924525583,
      "semi_major_axis_km": 6853.364517330118,
      "eccentricity": 0.00010688,
      "inclination_deg": 53.1598,
      "raan_deg": 1.5032,
      "arg_perigee_deg": 83.5446,
      "mean_anomaly_deg": 276.5677,
      "mean_motion_rev_day": 15.30195831
    },
    {
      "epoch": "2026-03-29T01:12:25.443936Z",
      "apogee_km": 475.82014473033723,
      "perigee_km": 474.65918272350245,
      "latitude_deg": 6.967183285681335e-07,
      "longitude_deg": 156.32633069142398,
      "height_km": 475.978920710757,
      "semi_major_axis_km": 6853.37666372692,
      "eccentricity": 8.47e-05,
      "inclination_deg": 53.1586,
      "raan_deg": 0.8943,
      "arg_perigee_deg": 74.0744,
      "mean_anomaly_deg": 286.035,
      "mean_motion_rev_day": 15.30191763
    },
    {
      "epoch": "2026-03-30T03:51:19.872288Z",
      "apogee_km": 475.80633350606513,
      "perigee_km": 474.60288671932904,
      "latitude_deg": 2.0898819322474712e-05,
      "longitude_deg": 110.34944856270411,
      "height_km": 475.86085374032365,
      "semi_major_axis_km": 6853.341610112697,
      "eccentricity": 8.78e-05,
      "inclination_deg": 53.1597,
      "raan_deg": 355.7386,
      "arg_perigee_deg": 66.2412,
      "mean_anomaly_deg": 293.8681,
      "mean_motion_rev_day": 15.30203503
    },
    {
      "epoch": "2026-03-30T21:05:55.530816Z",
      "apogee_km": 476.51379041508426,
      "perigee_km": 473.9820129647014,
      "latitude_deg": 6.259743885289502e-05,
      "longitude_deg": -152.34415138132724,
      "height_km": 474.92925516511843,
      "semi_major_axis_km": 6853.384901689892,
      "eccentricity": 0.00018471,
      "inclination_deg": 53.1601,
      "raan_deg": 352.4017,
      "arg_perigee_deg": 15.8513,
      "mean_anomaly_deg": 344.2546,
      "mean_motion_rev_day": 15.30189004
    },
    {
      "epoch": "2026-03-31T00:14:01.611168Z",
      "apogee_km": 476.0426549389704,
      "perigee_km": 474.36687581050046,
      "latitude_deg": -4.238841568990526e-05,
      "longitude_deg": 159.89558496216551,
      "height_km": 475.89827080863625,
      "semi_major_axis_km": 6853.341765374736,
      "eccentricity": 0.00012226,
      "inclination_deg": 53.1604,
      "raan_deg": 351.7956,
      "arg_perigee_deg": 75.8565,
      "mean_anomaly_deg": 284.2571,
      "mean_motion_rev_day": 15.30203451
    },
    {
      "epoch": "2026-04-01T02:52:56.131104Z",
      "apogee_km": 475.88196221949056,
      "perigee_km": 474.4804586454575,
      "latitude_deg": -5.7257835293745614e-05,
      "longitude_deg": 113.91519492929255,
      "height_km": 476.12089458471735,
      "semi_major_axis_km": 6853.318210432473,
      "eccentricity": 0.00010225,
      "inclination_deg": 53.1606,
      "raan_deg": 346.6368,
      "arg_perigee_deg": 93.3702,
      "mean_anomaly_deg": 266.7415,
      "mean_motion_rev_day": 15.3021134
    },
    {
      "epoch": "2026-04-02T21:12:21.850272Z",
      "apogee_km": 475.8448392294931,
      "perigee_km": 474.23297225646184,
      "latitude_deg": -3.4423214027815726e-05,
      "longitude_deg": -170.87122670538284,
      "height_km": 475.968458232577,
      "semi_major_axis_km": 6853.175905742977,
      "eccentricity": 0.0001176,
      "inclination_deg": 53.1611,
      "raan_deg": 338.4457,
      "arg_perigee_deg": 92.2188,
      "mean_anomaly_deg": 267.8947,
      "mean_motion_rev_day": 15.30259002
    },
    {
      "epoch": "2026-04-02T22:46:24.997152Z",
      "apogee_km": 476.03422827070517,
      "perigee_km": 474.11286216224744,
      "latitude_deg": 1.1448511886321013e-05,
      "longitude_deg": 165.24821890192743,
      "height_km": 475.89461344880687,
      "semi_major_axis_km": 6853.210545216476,
      "eccentricity": 0.00014018,
      "inclination_deg": 53.1615,
      "raan_deg": 338.1426,
      "arg_perigee_deg": 85.4021,
      "mean_anomaly_deg": 274.714,
      "mean_motion_rev_day": 15.302474
    },
    {
      "epoch": "2026-04-03T20:43:10.556832Z",
      "apogee_km": 475.93586057888297,
      "perigee_km": 474.5610714544,
      "latitude_deg": 7.221055423804229e-05,
      "longitude_deg": -169.0909575925819,
      "height_km": 476.00377401406047,
      "semi_major_axis_km": 6853.385466016642,
      "eccentricity": 0.0001003,
      "inclination_deg": 53.161,
      "raan_deg": 333.8945,
      "arg_perigee_deg": 77.9714,
      "mean_anomaly_deg": 282.14,
      "mean_motion_rev_day": 15.30188815
    },
    {
      "epoch": "2026-04-04T01:25:20.240256Z",
      "apogee_km": 476.07423034599924,
      "perigee_km": 474.3869312476072,
      "latitude_deg": 4.6070019471125366e-05,
      "longitude_deg": 119.2651426568024,
      "height_km": 475.94697407312657,
      "semi_major_axis_km": 6853.367580796803,
      "eccentricity": 0.0001231,
      "inclination_deg": 53.1609,
      "raan_deg": 332.9841,
      "arg_perigee_deg": 77.551,
      "mean_anomaly_deg": 282.5629,
      "mean_motion_rev_day": 15.30194805
    },
    {
      "epoch": "2026-04-05T08:46:24.676032Z",
      "apogee_km": 476.13114634022077,
      "perigee_km": 474.44232566319533,
      "latitude_deg": 3.6304022451409584e-05,
      "longitude_deg": 1.641902078054541,
      "height_km": 476.1256338801136,
      "semi_major_axis_km": 6853.423736001708,
      "eccentricity": 0.00012321,
      "inclination_deg": 53.1612,
      "raan_deg": 326.9169,
      "arg_perigee_deg": 85.9697,
      "mean_anomaly_deg": 274.1445,
      "mean_motion_rev_day": 15.30175998
    },
    {
      "epoch": "2026-04-05T19:44:47.189760Z",
      "apogee_km": 476.0604474757665,
      "perigee_km": 474.3964503447705,
      "latitude_deg": -5.669747314645885e-06,
      "longitude_deg": -165.52617904293962,
      "height_km": 476.0401630443501,
      "semi_major_axis_km": 6853.365448910268,
      "eccentricity": 0.0001214,
      "inclination_deg": 53.1612,
      "raan_deg": 324.7933,
      "arg_perigee_deg": 84.0271,
      "mean_anomaly_deg": 276.0868,
      "mean_motion_rev_day": 15.30195519
    },
    {
      "epoch": "2026-04-06T00:26:56.659776Z",
      "apogee_km": 476.0176294112498,
      "perigee_km": 474.3625509189751,
      "latitude_deg": 3.8477006781399536e-05,
      "longitude_deg": 122.83106490863956,
      "height_km": 476.01366818441755,
      "semi_major_axis_km": 6853.327090165112,
      "eccentricity": 0.00012075,
      "inclination_deg": 53.161,
      "raan_deg": 323.8831,
      "arg_perigee_deg": 84.8213,
      "mean_anomaly_deg": 275.2926,
      "mean_motion_rev_day": 15.30208366
    },
    {
      "epoch": "2026-04-07T07:47:59.740800Z",
      "apogee_km": 475.9718883158612,
      "perigee_km": 474.3809601375606,
      "latitude_deg": 2.0589741208456637e-05,
      "longitude_deg": 5.212676695781172,
      "height_km": 476.07673095677336,
      "semi_major_axis_km": 6853.313424226711,
      "eccentricity": 0.00011607,
      "inclination_deg": 53.1609,
      "raan_deg": 317.8151,
      "arg_perigee_deg": 90.1429,
      "mean_anomaly_deg": 269.9705,
      "mean_motion_rev_day": 15.30212943
    },
    {
      "epoch": "2026-04-07T20:20:25.321056Z",
      "apogee_km": 475.96624965384945,
      "perigee_km": 474.41054478867954,
      "latitude_deg": -6.054412511561766e-05,
      "longitude_deg": 174.16461278882863,
      "height_km": 476.10668397115535,
      "semi_major_axis_km": 6853.325397221264,
      "eccentricity": 0.0001135,
      "inclination_deg": 53.1603,
      "raan_deg": 315.3887,
      "arg_perigee_deg": 91.4721,
      "mean_anomaly_deg": 268.6409,
      "mean_motion_rev_day": 15.30208933
    },
    {
      "epoch": "2026-04-07T21:54:28.490400Z",
      "apogee_km": 475.98001566400217,
      "perigee_km": 474.4325307529116,
      "latitude_deg": 3.943424470073312e-06,
      "longitude_deg": 150.2824781733614,
      "height_km": 476.1421447929433,
      "semi_major_axis_km": 6853.343273208457,
      "eccentricity": 0.0001129,
      "inclination_deg": 53.1599,
      "raan_deg": 315.0841,
      "arg_perigee_deg": 92.7864,
      "mean_anomaly_deg": 267.3266,
      "mean_motion_rev_day": 15.30202946
    },
    {
      "epoch": "2026-04-09T20:56:04.404480Z",
      "apogee_km": 476.0727584067017,
      "perigee_km": 474.3004889176218,
      "latitude_deg": -4.8112859506998726e-05,
      "longitude_deg": 153.84997591500496,
      "height_km": 476.0302687108549,
      "semi_major_axis_km": 6853.3236236621615,
      "eccentricity": 0.0001293,
      "inclination_deg": 53.16,
      "raan_deg": 305.9826,
      "arg_perigee_deg": 86.4795,
      "mean_anomaly_deg": 273.6353,
      "mean_motion_rev_day": 15.30209527
    },
    {
      "epoch": "2026-04-10T06:20:23.445600Z",
      "apogee_km": 475.9541034787808,
      "perigee_km": 474.44403940879965,
      "latitude_deg": 1.800997538435013e-05,
      "longitude_deg": 10.565024675526121,
      "height_km": 476.0574534070384,
      "semi_major_axis_km": 6853.33607144379,
      "eccentricity": 0.00011017,
      "inclination_deg": 53.1596,
      "raan_deg": 304.1632,
      "arg_perigee_deg": 86.9722,
      "mean_anomaly_deg": 273.1405,
      "mean_motion_rev_day": 15.30205358
    },
    {
      "epoch": "2026-04-11T19:57:40.379904Z",
      "apogee_km": 475.8142641658069,
      "perigee_km": 474.6272626011896,
      "latitude_deg": -2.8969926561334084e-05,
      "longitude_deg": 157.41807223166893,
      "height_km": 475.9239423263916,
      "semi_major_axis_km": 6853.357763383498,
      "eccentricity": 8.66e-05,
      "inclination_deg": 53.159,
      "raan_deg": 296.8819,
      "arg_perigee_deg": 70.7776,
      "mean_anomaly_deg": 289.3318,
      "mean_motion_rev_day": 15.30198093
    },
    {
      "epoch": "2026-04-12T19:28:28.137792Z",
      "apogee_km": 475.6317384910708,
      "perigee_km": 474.80988382235773,
      "latitude_deg": -2.261140499248101e-05,
      "longitude_deg": 159.2018295680979,
      "height_km": 475.9506308498166,
      "semi_major_axis_km": 6853.357811156714,
      "eccentricity": 5.996e-05,
      "inclination_deg": 53.1582,
      "raan_deg": 292.3303,
      "arg_perigee_deg": 65.7121,
      "mean_anomaly_deg": 294.3942,
      "mean_motion_rev_day": 15.30198077
    }
  ]
}